{"type": "FeatureCollection", "features": [{"type": "Feature", "properties": {"norad_id": 24876, "name": "GPS BIIR-2  (PRN 13)", "group": "gnss", "lat": 45.53889818897305, "lon": 149.0980642229001, "alt_km": 19920.090529906043, "timestamp": "2025-12-21T18:54:58.738385+00:00", "meta": {"OBJECT_NAME": "GPS BIIR-2  (PRN 13)", "OBJECT_ID": "1997-035A", "EPOCH": "2025-12-21T05:00:18.122112", "MEAN_MOTION": 2.00563754, "ECCENTRICITY": 0.00968202, "INCLINATION": 55.8993, "RA_OF_ASC_NODE": 105.5377, "ARG_OF_PERICENTER": 56.9664, "MEAN_ANOMALY": 303.9402, "EPHEMERIS_TYPE": 0, "CLASSIFICATION_TYPE": "U", "NORAD_CAT_ID": 24876, "ELEMENT_SET_NO": 999, "REV_AT_EPOCH": 20838, "BSTAR": 0, "MEAN_MOTION_DOT": 2e-08, "MEAN_MOTION_DDOT": 0}, "tle": {"line1": "1 24876U 97035A   25355.20854308  .00000002  00000+0  00000+0 0  9991", "line2": "2 24876  55.8993 105.5377 0096820  56.9664 303.9402  2.00563754208381"}}, "geometry": {"type": "Point", "coordinates": [149.0980642229001, 45.53889818897305]}}, {"type": "Feature", "properties": {"norad_id": 26360, "name": "GPS BIIR-4  (PRN 20)", "group": "gnss", "lat": 23.38977738728097, "lon": -171.11338805518733, "alt_km": 20182.008367043916, "timestamp": "2025-12-21T18:54:58.738432+00:00", "meta": {"OBJECT_NAME": "GPS BIIR-4  (PRN 20)", "OBJECT_ID": "2000-025A", "EPOCH": "2025-12-21T05:19:14.670048", "MEAN_MOTION": 2.0056705, "ECCENTRICITY": 0.0038897, "INCLINATION": 55.0502, "RA_OF_ASC_NODE": 26.4949, "ARG_OF_PERICENTER": 242.7827, "MEAN_ANOMALY": 219.6694, "EPHEMERIS_TYPE": 0, "CLASSIFICATION_TYPE": "U", "NORAD_CAT_ID": 26360, "ELEMENT_SET_NO": 999, "REV_AT_EPOCH": 18770, "BSTAR": 0, "MEAN_MOTION_DOT": -6.2e-07, "MEAN_MOTION_DDOT": 0}, "tle": {"line1": "1 26360U 00025A   25355.22169757 -.00000062  00000+0  00000+0 0  9990", "line2": "2 26360  55.0502  26.4949 0038897 242.7827 219.6694  2.00567050187702"}}, "geometry": {"type": "Point", "coordinates": [-171.11338805518733, 23.38977738728097]}}, {"type": "Feature", "properties": {"norad_id": 26407, "name": "GPS BIIR-5  (PRN 22)", "group": "gnss", "lat": -6.410629187872897, "lon": -142.3093748123898, "alt_km": 19967.330506320603, "timestamp": "2025-12-21T18:54:58.738452+00:00", "meta": {"OBJECT_NAME": "GPS BIIR-5  (PRN 22)", "OBJECT_ID": "2000-040A", "EPOCH": "2025-12-21T13:26:27.431808", "MEAN_MOTION": 2.00568105, "ECCENTRICITY": 0.01255252, "INCLINATION": 54.8889, "RA_OF_ASC_NODE": 222.2183, "ARG_OF_PERICENTER": 301.9581, "MEAN_ANOMALY": 244.4622, "EPHEMERIS_TYPE": 0, "CLASSIFICATION_TYPE": "U", "NORAD_CAT_ID": 26407, "ELEMENT_SET_NO": 999, "REV_AT_EPOCH": 18638, "BSTAR": 0, "MEAN_MOTION_DOT": 7e-07, "MEAN_MOTION_DDOT": 0}, "tle": {"line1": "1 26407U 00040A   25355.56003972  .00000070  00000+0  00000+0 0  9990", "line2": "2 26407  54.8889 222.2183 0125525 301.9581 244.4622  2.00568105186387"}}, "geometry": {"type": "Point", "coordinates": [-142.3093748123898, -6.410629187872897]}}, {"type": "Feature", "properties": {"norad_id": 27663, "name": "GPS BIIR-8  (PRN 16)", "group": "gnss", "lat": 39.67736332549748, "lon": 6.386382272649086, "alt_km": 20081.432719018154, "timestamp": "2025-12-21T18:54:58.738467+00:00", "meta": {"OBJECT_NAME": "GPS BIIR-8  (PRN 16)", "OBJECT_ID": "2003-005A", "EPOCH": "2025-12-20T15:07:28.763328", "MEAN_MOTION": 2.00570507, "ECCENTRICITY": 0.0147742, "INCLINATION": 54.9216, "RA_OF_ASC_NODE": 222.0644, "ARG_OF_PERICENTER": 51.9121, "MEAN_ANOMALY": 319.0535, "EPHEMERIS_TYPE": 0, "CLASSIFICATION_TYPE": "U", "NORAD_CAT_ID": 27663, "ELEMENT_SET_NO": 999, "REV_AT_EPOCH": 16773, "BSTAR": 0, "MEAN_MOTION_DOT": 7.3e-07, "MEAN_MOTION_DDOT": 0}, "tle": {"line1": "1 27663U 03005A   25354.63019402  .00000073  00000+0  00000+0 0  9994", "line2": "2 27663  54.9216 222.0644 0147742  51.9121 319.0535  2.00570507167733"}}, "geometry": {"type": "Point", "coordinates": [6.386382272649086, 39.67736332549748]}}, {"type": "Feature", "properties": {"norad_id": 28190, "name": "GPS BIIR-11 (PRN 19)", "group": "gnss", "lat": -51.72481755826312, "lon": -139.70622204589165, "alt_km": 20324.81086068213, "timestamp": "2025-12-21T18:54:58.738480+00:00", "meta": {"OBJECT_NAME": "GPS BIIR-11 (PRN 19)", "OBJECT_ID": "2004-009A", "EPOCH": "2025-12-20T02:10:39.105696", "MEAN_MOTION": 2.00560582, "ECCENTRICITY": 0.01084506, "INCLINATION": 54.979, "RA_OF_ASC_NODE": 282.9228, "ARG_OF_PERICENTER": 167.7566, "MEAN_ANOMALY": 332.1268, "EPHEMERIS_TYPE": 0, "CLASSIFICATION_TYPE": "U", "NORAD_CAT_ID": 28190, "ELEMENT_SET_NO": 999, "REV_AT_EPOCH": 15935, "BSTAR": 0, "MEAN_MOTION_DOT": -3.4e-07, "MEAN_MOTION_DDOT": 0}, "tle": {"line1": "1 28190U 04009A   25354.09073039 -.00000034  00000+0  00000+0 0  9999", "line2": "2 28190  54.9790 282.9228 0108450 167.7566 332.1268  2.00560582159351"}}, "geometry": {"type": "Point", "coordinates": [-139.70622204589165, -51.72481755826312]}}, {"type": "Feature", "properties": {"norad_id": 28474, "name": "GPS BIIR-13 (PRN 02)", "group": "gnss", "lat": -10.590303029370807, "lon": -35.43370094456082, "alt_km": 19819.680025468206, "timestamp": "2025-12-21T18:54:58.738504+00:00", "meta": {"OBJECT_NAME": "GPS BIIR-13 (PRN 02)", "OBJECT_ID": "2004-045A", "EPOCH": "2025-12-21T13:21:16.085952", "MEAN_MOTION": 2.00569985, "ECCENTRICITY": 0.01709193, "INCLINATION": 55.2363, "RA_OF_ASC_NODE": 332.0513, "ARG_OF_PERICENTER": 309.6441, "MEAN_ANOMALY": 228.908, "EPHEMERIS_TYPE": 0, "CLASSIFICATION_TYPE": "U", "NORAD_CAT_ID": 28474, "ELEMENT_SET_NO": 999, "REV_AT_EPOCH": 15486, "BSTAR": 0, "MEAN_MOTION_DOT": -7.1e-07, "MEAN_MOTION_DDOT": 0}, "tle": {"line1": "1 28474U 04045A   25355.55643618 -.00000071  00000+0  00000+0 0  9993", "line2": "2 28474  55.2363 332.0513 0170919 309.6441 228.9080  2.00569985154869"}}, "geometry": {"type": "Point", "coordinates": [-35.43370094456082, -10.590303029370807]}}, {"type": "Feature", "properties": {"norad_id": 28874, "name": "GPS BIIRM-1 (PRN 17)", "group": "gnss", "lat": -41.95578940759105, "lon": -118.6060091892605, "alt_km": 19843.767582516535, "timestamp": "2025-12-21T18:54:58.738522+00:00", "meta": {"OBJECT_NAME": "GPS BIIRM-1 (PRN 17)", "OBJECT_ID": "2005-038A", "EPOCH": "2025-12-21T00:50:49.977024", "MEAN_MOTION": 2.00577927, "ECCENTRICITY": 0.01313807, "INCLINATION": 55.0245, "RA_OF_ASC_NODE": 280.367, "ARG_OF_PERICENTER": 293.7438, "MEAN_ANOMALY": 187.6731, "EPHEMERIS_TYPE": 0, "CLASSIFICATION_TYPE": "U", "NORAD_CAT_ID": 28874, "ELEMENT_SET_NO": 999, "REV_AT_EPOCH": 14826, "BSTAR": 0, "MEAN_MOTION_DOT": -2.4e-07, "MEAN_MOTION_DDOT": 0}, "tle": {"line1": "1 28874U 05038A   25355.03530066 -.00000024  00000+0  00000+0 0  9993", "line2": "2 28874  55.0245 280.3670 0131380 293.7438 187.6731  2.00577927148263"}}, "geometry": {"type": "Point", "coordinates": [-118.6060091892605, -41.95578940759105]}}, {"type": "Feature", "properties": {"norad_id": 28899, "name": "INMARSAT 4-F2 (SOUTHPAN/PRN 122)", "group": "gnss", "lat": 4.449745031577689, "lon": 157.9047608632328, "alt_km": 35790.118237804556, "timestamp": "2025-12-21T18:54:58.738537+00:00", "meta": {"OBJECT_NAME": "INMARSAT 4-F2 (SOUTHPAN/PRN 122)", "OBJECT_ID": "2005-044A", "EPOCH": "2025-12-21T08:44:39.966144", "MEAN_MOTION": 1.00272429, "ECCENTRICITY": 0.0002238, "INCLINATION": 4.8615, "RA_OF_ASC_NODE": 43.7082, "ARG_OF_PERICENTER": 234.2442, "MEAN_ANOMALY": 86.904, "EPHEMERIS_TYPE": 0, "CLASSIFICATION_TYPE": "U", "NORAD_CAT_ID": 28899, "ELEMENT_SET_NO": 999, "REV_AT_EPOCH": 7373, "BSTAR": 0, "MEAN_MOTION_DOT": -2.41e-06, "MEAN_MOTION_DDOT": 0}, "tle": {"line1": "1 28899U 05044A   25355.36435146 -.00000241  00000+0  00000+0 0  9997", "line2": "2 28899   4.8615  43.7082 0002238 234.2442  86.9040  1.00272429 73736"}}, "geometry": {"type": "Point", "coordinates": [157.9047608632328, 4.449745031577689]}}, {"type": "Feature", "properties": {"norad_id": 29486, "name": "GPS BIIRM-2 (PRN 31)", "group": "gnss", "lat": -22.526643481991126, "lon": -4.530189450699566, "alt_km": 20445.32059899222, "timestamp": "2025-12-21T18:54:58.738550+00:00", "meta": {"OBJECT_NAME": "GPS BIIRM-2 (PRN 31)", "OBJECT_ID": "2006-042A", "EPOCH": "2025-12-21T12:25:39.335232", "MEAN_MOTION": 2.00553827, "ECCENTRICITY": 0.01073004, "INCLINATION": 54.6951, "RA_OF_ASC_NODE": 158.3926, "ARG_OF_PERICENTER": 52.1628, "MEAN_ANOMALY": 320.0686, "EPHEMERIS_TYPE": 0, "CLASSIFICATION_TYPE": "U", "NORAD_CAT_ID": 29486, "ELEMENT_SET_NO": 999, "REV_AT_EPOCH": 14083, "BSTAR": 0, "MEAN_MOTION_DOT": 7.1e-07, "MEAN_MOTION_DDOT": 0}, "tle": {"line1": "1 29486U 06042A   25355.51781638  .00000071  00000+0  00000+0 0  9996", "line2": "2 29486  54.6951 158.3926 0107300  52.1628 320.0686  2.00553827140833"}}, "geometry": {"type": "Point", "coordinates": [-4.530189450699566, -22.526643481991126]}}, {"type": "Feature", "properties": {"norad_id": 29601, "name": "GPS BIIRM-3 (PRN 12)", "group": "gnss", "lat": -54.72883572070109, "lon": 123.60142484020456, "alt_km": 20420.620066394258, "timestamp": "2025-12-21T18:54:58.738577+00:00", "meta": {"OBJECT_NAME": "GPS BIIRM-3 (PRN 12)", "OBJECT_ID": "2006-052A", "EPOCH": "2025-12-20T22:09:19.492992", "MEAN_MOTION": 2.00574173, "ECCENTRICITY": 0.0087999, "INCLINATION": 54.9689, "RA_OF_ASC_NODE": 221.0734, "ARG_OF_PERICENTER": 87.5315, "MEAN_ANOMALY": 273.5726, "EPHEMERIS_TYPE": 0, "CLASSIFICATION_TYPE": "U", "NORAD_CAT_ID": 29601, "ELEMENT_SET_NO": 999, "REV_AT_EPOCH": 13983, "BSTAR": 0, "MEAN_MOTION_DOT": 7.4e-07, "MEAN_MOTION_DDOT": 0}, "tle": {"line1": "1 29601U 06052A   25354.92314228  .00000074  00000+0  00000+0 0  9990", "line2": "2 29601  54.9689 221.0734 0087999  87.5315 273.5726  2.00574173139836"}}, "geometry": {"type": "Point", "coordinates": [123.60142484020456, -54.72883572070109]}}]}